{"fetched_at":"2026-07-23T07:05:13.950Z","source":"https://celestrak.org/NORAD/elements/gp.php?GROUP=globalstar&FORMAT=JSON","constellation":"globalstar","records":[{"OBJECT_NAME":"GLOBALSTAR M080","OBJECT_ID":"2011-080B","EPOCH":"2026-07-22T21:35:15.867744","CLASSIFICATION_TYPE":"U","MEAN_MOTION":12.62257646,"ECCENTRICITY":0.00002987,"INCLINATION":52.0054,"RA_OF_ASC_NODE":270.2953,"ARG_OF_PERICENTER":64.0996,"MEAN_ANOMALY":119.5345,"EPHEMERIS_TYPE":0,"NORAD_CAT_ID":38041,"ELEMENT_SET_NO":999,"REV_AT_EPOCH":67339,"BSTAR":0.000047951456,"MEAN_MOTION_DOT":-9.5e-7,"MEAN_MOTION_DDOT":0},{"OBJECT_NAME":"GLOBALSTAR M082","OBJECT_ID":"2011-080C","EPOCH":"2026-07-22T06:12:19.113984","CLASSIFICATION_TYPE":"U","MEAN_MOTION":12.62264365,"ECCENTRICITY":0.00002128,"INCLINATION":52.0051,"RA_OF_ASC_NODE":227.7492,"ARG_OF_PERICENTER":49.6438,"MEAN_ANOMALY":30.196,"EPHEMERIS_TYPE":0,"NORAD_CAT_ID":38042,"ELEMENT_SET_NO":999,"REV_AT_EPOCH":67402,"BSTAR":0.00006069296,"MEAN_MOTION_DOT":-9.3e-7,"MEAN_MOTION_DDOT":0},{"OBJECT_NAME":"GLOBALSTAR M092","OBJECT_ID":"2011-080D","EPOCH":"2026-07-22T19:20:02.570784","CLASSIFICATION_TYPE":"U","MEAN_MOTION":12.6226801,"ECCENTRICITY":0.00007071,"INCLINATION":52.0104,"RA_OF_ASC_NODE":316.4828,"ARG_OF_PERICENTER":112.8753,"MEAN_ANOMALY":53.414,"EPHEMERIS_TYPE":0,"NORAD_CAT_ID":38043,"ELEMENT_SET_NO":999,"REV_AT_EPOCH":67254,"BSTAR":0.000091413259,"MEAN_MOTION_DOT":-8.7e-7,"MEAN_MOTION_DDOT":0},{"OBJECT_NAME":"GLOBALSTAR M090","OBJECT_ID":"2011-080E","EPOCH":"2026-07-22T18:47:09.767616","CLASSIFICATION_TYPE":"U","MEAN_MOTION":12.62269656,"ECCENTRICITY":0.00003885,"INCLINATION":52.0097,"RA_OF_ASC_NODE":220.1205,"ARG_OF_PERICENTER":78.0793,"MEAN_ANOMALY":103.8667,"EPHEMERIS_TYPE":0,"NORAD_CAT_ID":38044,"ELEMENT_SET_NO":999,"REV_AT_EPOCH":67420,"BSTAR":0.000086945586,"MEAN_MOTION_DOT":-8.8e-7,"MEAN_MOTION_DDOT":0},{"OBJECT_NAME":"GLOBALSTAR M086","OBJECT_ID":"2011-080F","EPOCH":"2026-07-22T11:35:55.595040","CLASSIFICATION_TYPE":"U","MEAN_MOTION":12.62287851,"ECCENTRICITY":0.00013971,"INCLINATION":51.9868,"RA_OF_ASC_NODE":220.9029,"ARG_OF_PERICENTER":121.9821,"MEAN_ANOMALY":42.6812,"EPHEMERIS_TYPE":0,"NORAD_CAT_ID":38045,"ELEMENT_SET_NO":999,"REV_AT_EPOCH":67411,"BSTAR":0.000064872662,"MEAN_MOTION_DOT":-9.2e-7,"MEAN_MOTION_DDOT":0},{"OBJECT_NAME":"GLOBALSTAR M097","OBJECT_ID":"2013-005A","EPOCH":"2026-07-22T13:23:43.077408","CLASSIFICATION_TYPE":"U","MEAN_MOTION":12.62271291,"ECCENTRICITY":0.0000582,"INCLINATION":52.0041,"RA_OF_ASC_NODE":135.6627,"ARG_OF_PERICENTER":47.8826,"MEAN_ANOMALY":312.209,"EPHEMERIS_TYPE":0,"NORAD_CAT_ID":39072,"ELEMENT_SET_NO":999,"REV_AT_EPOCH":62137,"BSTAR":-0.000061011602,"MEAN_MOTION_DOT":-0.00000115,"MEAN_MOTION_DDOT":0},{"OBJECT_NAME":"GLOBALSTAR M093","OBJECT_ID":"2013-005B","EPOCH":"2026-07-22T12:45:13.172544","CLASSIFICATION_TYPE":"U","MEAN_MOTION":12.62266443,"ECCENTRICITY":0.00008122,"INCLINATION":52.0101,"RA_OF_ASC_NODE":129.105,"ARG_OF_PERICENTER":54.3817,"MEAN_ANOMALY":305.7125,"EPHEMERIS_TYPE":0,"NORAD_CAT_ID":39073,"ELEMENT_SET_NO":999,"REV_AT_EPOCH":62132,"BSTAR":0.000042616733,"MEAN_MOTION_DOT":-9.6e-7,"MEAN_MOTION_DDOT":0},{"OBJECT_NAME":"GLOBALSTAR M094","OBJECT_ID":"2013-005C","EPOCH":"2026-07-22T07:02:56.738400","CLASSIFICATION_TYPE":"U","MEAN_MOTION":12.62264268,"ECCENTRICITY":0.0001046,"INCLINATION":51.997,"RA_OF_ASC_NODE":43.9101,"ARG_OF_PERICENTER":74.647,"MEAN_ANOMALY":285.4512,"EPHEMERIS_TYPE":0,"NORAD_CAT_ID":39074,"ELEMENT_SET_NO":999,"REV_AT_EPOCH":62290,"BSTAR":-0.000014109705,"MEAN_MOTION_DOT":-0.00000106,"MEAN_MOTION_DDOT":0},{"OBJECT_NAME":"GLOBALSTAR M096","OBJECT_ID":"2013-005D","EPOCH":"2026-07-22T22:34:37.119360","CLASSIFICATION_TYPE":"U","MEAN_MOTION":12.6226594,"ECCENTRICITY":0.00008681,"INCLINATION":52.0077,"RA_OF_ASC_NODE":90.7705,"ARG_OF_PERICENTER":55.8955,"MEAN_ANOMALY":304.1994,"EPHEMERIS_TYPE":0,"NORAD_CAT_ID":39075,"ELEMENT_SET_NO":999,"REV_AT_EPOCH":62190,"BSTAR":0.000022972058,"MEAN_MOTION_DOT":-0.000001,"MEAN_MOTION_DDOT":0},{"OBJECT_NAME":"GLOBALSTAR M078","OBJECT_ID":"2013-005E","EPOCH":"2026-07-22T06:43:45.366816","CLASSIFICATION_TYPE":"U","MEAN_MOTION":12.62260123,"ECCENTRICITY":0.00010085,"INCLINATION":51.985,"RA_OF_ASC_NODE":176.7415,"ARG_OF_PERICENTER":358.0095,"MEAN_ANOMALY":2.0767,"EPHEMERIS_TYPE":0,"NORAD_CAT_ID":39076,"ELEMENT_SET_NO":999,"REV_AT_EPOCH":62044,"BSTAR":0.000074677784,"MEAN_MOTION_DOT":-9e-7,"MEAN_MOTION_DDOT":0},{"OBJECT_NAME":"GLOBALSTAR M095","OBJECT_ID":"2013-005F","EPOCH":"2026-07-22T22:34:21.310752","CLASSIFICATION_TYPE":"U","MEAN_MOTION":12.62264064,"ECCENTRICITY":0.000064,"INCLINATION":52.0058,"RA_OF_ASC_NODE":172.3851,"ARG_OF_PERICENTER":25.8093,"MEAN_ANOMALY":334.2805,"EPHEMERIS_TYPE":0,"NORAD_CAT_ID":39077,"ELEMENT_SET_NO":999,"REV_AT_EPOCH":62038,"BSTAR":0.000033585155,"MEAN_MOTION_DOT":-9.8e-7,"MEAN_MOTION_DDOT":0},{"OBJECT_NAME":"GLOBALSTAR M087","OBJECT_ID":"2022-064A","EPOCH":"2026-07-22T17:11:06.729504","CLASSIFICATION_TYPE":"U","MEAN_MOTION":12.62269507,"ECCENTRICITY":0.00008603,"INCLINATION":52.0014,"RA_OF_ASC_NODE":314.2882,"ARG_OF_PERICENTER":94.49,"MEAN_ANOMALY":265.6065,"EPHEMERIS_TYPE":0,"NORAD_CAT_ID":52888,"ELEMENT_SET_NO":999,"REV_AT_EPOCH":19562,"BSTAR":0.000079987101,"MEAN_MOTION_DOT":-8.9e-7,"MEAN_MOTION_DDOT":0}]}
